STARLINK-30136          
1 56844U 23079X   26068.50002314  .00122112  00000+0  56579-2 0  9997
2 56844  43.0009 107.7538 0002110 272.4679  39.2148 15.18906072  5761
CONNECTA IOT-10         
1 64555U 25135AD  26068.31633696  .00005349  00000+0  24786-3 0  9990
2 64555  97.4557 184.3751 0000690  59.0746 301.0557 15.20507930 39688
